[
    {
        "Altitude(m)": 559726.7114826386,
        "Argument of Periapsis(deg)": 0.0,
        "Eccentricity": 0.0,
        "Inclination(deg)": 53.0,
        "Latitude(deg)": 52.383331199509605,
        "Longitude(deg)": 93.48240159676853,
        "Mean Anomaly(deg)": 98.18179999999998,
        "RAAN(deg)": 90.0,
        "Satellite Name": "Starlink Shell 1 402",
        "Satellite Number": 402,
        "Semi-Major Axis(m)": 6931778.249405717,
        "Time(s)": 0
    },
    {
        "Altitude(m)": 559699.2713220599,
        "Argument of Periapsis(deg)": 0.00034857847951123687,
        "Eccentricity": 0.0,
        "Inclination(deg)": 53.0,
        "Latitude(deg)": 52.262571535383266,
        "Longitude(deg)": 94.44473171975478,
        "Mean Anomaly(deg)": 98.80863120355669,
        "RAAN(deg)": 89.99948122992252,
        "Satellite Name": "Starlink Shell 1 402",
        "Satellite Number": 402,
        "Semi-Major Axis(m)": 6931778.249405717,
        "Time(s)": 10
    },
    {
        "Altitude(m)": 559669.883416657,
        "Argument of Periapsis(deg)": 0.0006971569590224737,
        "Eccentricity": 0.0,
        "Inclination(deg)": 53.0,
        "Latitude(deg)": 52.13332990380446,
        "Longitude(deg)": 95.40143817747506,
        "Mean Anomaly(deg)": 99.4354624071134,
        "RAAN(deg)": 89.99896245984506,
        "Satellite Name": "Starlink Shell 1 402",
        "Satellite Number": 402,
        "Semi-Major Axis(m)": 6931778.249405717,
        "Time(s)": 20
    },
    {
        "Altitude(m)": 559638.5654986848,
        "Argument of Periapsis(deg)": 0.0010457354385337105,
        "Eccentricity": 0.0,
        "Inclination(deg)": 53.0,
        "Latitude(deg)": 51.99569378060623,
        "Longitude(deg)": 96.35220369779996,
        "Mean Anomaly(deg)": 100.06229361067015,
        "RAAN(deg)": 89.99844368976758,
        "Satellite Name": "Starlink Shell 1 402",
        "Satellite Number": 402,
        "Semi-Major Axis(m)": 6931778.249405717,
        "Time(s)": 30
    },
    {
        "Altitude(m)": 559605.3364734297,
        "Argument of Periapsis(deg)": 0.0013943139180449475,
        "Eccentricity": 0.0,
        "Inclination(deg)": 53.0,
        "Latitude(deg)": 51.849755030465126,
        "Longitude(deg)": 97.29672670336303,
        "Mean Anomaly(deg)": 100.68912481422683,
        "RAAN(deg)": 89.9979249196901,
        "Satellite Name": "Starlink Shell 1 402",
        "Satellite Number": 402,
        "Semi-Major Axis(m)": 6931778.249405717,
        "Time(s)": 40
    },
    {
        "Altitude(m)": 559570.2164099849,
        "Argument of Periapsis(deg)": 0.0017428923975561844,
        "Eccentricity": 0.0,
        "Inclination(deg)": 53.0,
        "Latitude(deg)": 51.69560962922803,
        "Longitude(deg)": 98.23472072088903,
        "Mean Anomaly(deg)": 101.31595601778358,
        "RAAN(deg)": 89.99740614961264,
        "Satellite Name": "Starlink Shell 1 402",
        "Satellite Number": 402,
        "Semi-Major Axis(m)": 6931778.249405717,
        "Time(s)": 50
    },
    {
        "Altitude(m)": 559533.2265314431,
        "Argument of Periapsis(deg)": 0.002091470877067421,
        "Eccentricity": 0.0,
        "Inclination(deg)": 53.0,
        "Latitude(deg)": 51.5333573814358,
        "Longitude(deg)": 99.1659152170104,
        "Mean Anomaly(deg)": 101.9427872213403,
        "RAAN(deg)": 89.99688737953517,
        "Satellite Name": "Starlink Shell 1 402",
        "Satellite Number": 402,
        "Semi-Major Axis(m)": 6931778.249405717,
        "Time(s)": 60
    },
    {
        "Altitude(m)": 559494.3892045112,
        "Argument of Periapsis(deg)": 0.0024400493565786582,
        "Eccentricity": 0.0,
        "Inclination(deg)": 53.0,
        "Latitude(deg)": 51.36310163479168,
        "Longitude(deg)": 100.09005634925714,
        "Mean Anomaly(deg)": 102.569618424897,
        "RAAN(deg)": 89.99636860945769,
        "Satellite Name": "Starlink Shell 1 402",
        "Satellite Number": 402,
        "Semi-Major Axis(m)": 6931778.249405717,
        "Time(s)": 70
    },
    {
        "Altitude(m)": 559453.7279285819,
        "Argument of Periapsis(deg)": 0.002788627836089895,
        "Eccentricity": 0.0,
        "Inclination(deg)": 53.0,
        "Latitude(deg)": 51.184948993250444,
        "Longitude(deg)": 101.00690612169444,
        "Mean Anomaly(deg)": 103.19644962845373,
        "RAAN(deg)": 89.99584983938023,
        "Satellite Name": "Starlink Shell 1 402",
        "Satellite Number": 402,
        "Semi-Major Axis(m)": 6931778.249405717,
        "Time(s)": 80
    },
    {
        "Altitude(m)": 559411.2673242157,
        "Argument of Periapsis(deg)": 0.0031372063156011316,
        "Eccentricity": 0.0,
        "Inclination(deg)": 53.0,
        "Latitude(deg)": 50.99900903032674,
        "Longitude(deg)": 101.91624297395613,
        "Mean Anomaly(deg)": 103.82328083201044,
        "RAAN(deg)": 89.99533106930275,
        "Satellite Name": "Starlink Shell 1 402",
        "Satellite Number": 402,
        "Semi-Major Axis(m)": 6931778.249405717,
        "Time(s)": 90
    },
    {
        "Altitude(m)": 559367.0331210963,
        "Argument of Periapsis(deg)": 0.0034857847951123688,
        "Eccentricity": 0.0,
        "Inclination(deg)": 53.0,
        "Latitude(deg)": 50.80539400413333,
        "Longitude(deg)": 102.81786229435009,
        "Mean Anomaly(deg)": 104.45011203556714,
        "RAAN(deg)": 89.99481229922526,
        "Satellite Name": "Starlink Shell 1 402",
        "Satellite Number": 402,
        "Semi-Major Axis(m)": 6931778.249405717,
        "Time(s)": 100
    },
    {
        "Altitude(m)": 559321.0521454214,
        "Argument of Periapsis(deg)": 0.003834363274623606,
        "Eccentricity": 0.0,
        "Inclination(deg)": 53.0,
        "Latitude(deg)": 50.60421857555989,
        "Longitude(deg)": 103.7115753481875,
        "Mean Anomaly(deg)": 105.07694323912384,
        "RAAN(deg)": 89.99429352914781,
        "Satellite Name": "Starlink Shell 1 402",
        "Satellite Number": 402,
        "Semi-Major Axis(m)": 6931778.249405717,
        "Time(s)": 110
    },
    {
        "Altitude(m)": 559273.3523067598,
        "Argument of Periapsis(deg)": 0.004182941754134842,
        "Eccentricity": 0.0,
        "Inclination(deg)": 53.0,
        "Latitude(deg)": 50.395599530896135,
        "Longitude(deg)": 104.59720965151581,
        "Mean Anomaly(deg)": 105.70377444268054,
        "RAAN(deg)": 89.99377475907032,
        "Satellite Name": "Starlink Shell 1 402",
        "Satellite Number": 402,
        "Semi-Major Axis(m)": 6931778.249405717,
        "Time(s)": 120
    },
    {
        "Altitude(m)": 559223.9625843447,
        "Argument of Periapsis(deg)": 0.004531520233646079,
        "Eccentricity": 0.0,
        "Inclination(deg)": 53.0,
        "Latitude(deg)": 50.17965551009033,
        "Longitude(deg)": 105.47460928211694,
        "Mean Anomaly(deg)": 106.3306056462373,
        "RAAN(deg)": 89.99325598899284,
        "Satellite Name": "Starlink Shell 1 402",
        "Satellite Number": 402,
        "Semi-Major Axis(m)": 6931778.249405717,
        "Time(s)": 130
    },
    {
        "Altitude(m)": 559172.9130128775,
        "Argument of Periapsis(deg)": 0.0048800987131573164,
        "Eccentricity": 0.0,
        "Inclination(deg)": 53.0,
        "Latitude(deg)": 49.95650674171692,
        "Longitude(deg)": 106.3436336198658,
        "Mean Anomaly(deg)": 106.95743684979402,
        "RAAN(deg)": 89.99273721891538,
        "Satellite Name": "Starlink Shell 1 402",
        "Satellite Number": 402,
        "Semi-Major Axis(m)": 6931778.249405717,
        "Time(s)": 140
    },
    {
        "Altitude(m)": 559120.2346677596,
        "Argument of Periapsis(deg)": 0.005228677192668553,
        "Eccentricity": 0.0,
        "Inclination(deg)": 53.0,
        "Latitude(deg)": 49.72627478560737,
        "Longitude(deg)": 107.20415754733376,
        "Mean Anomaly(deg)": 107.58426805335073,
        "RAAN(deg)": 89.9922184488379,
        "Satellite Name": "Starlink Shell 1 402",
        "Satellite Number": 402,
        "Semi-Major Axis(m)": 6931778.249405717,
        "Time(s)": 150
    },
    {
        "Altitude(m)": 559065.9596498212,
        "Argument of Periapsis(deg)": 0.00557725567217979,
        "Eccentricity": 0.0,
        "Inclination(deg)": 53.0,
        "Latitude(deg)": 49.48908228397931,
        "Longitude(deg)": 108.05607160297133,
        "Mean Anomaly(deg)": 108.21109925690742,
        "RAAN(deg)": 89.99169967876043,
        "Satellite Name": "Starlink Shell 1 402",
        "Satellite Number": 402,
        "Semi-Major Axis(m)": 6931778.249405717,
        "Time(s)": 160
    },
    {
        "Altitude(m)": 559010.1210695534,
        "Argument of Periapsis(deg)": 0.0059258341516910265,
        "Eccentricity": 0.0,
        "Inclination(deg)": 53.0,
        "Latitude(deg)": 49.24505272178026,
        "Longitude(deg)": 108.89928057923098,
        "Mean Anomaly(deg)": 108.83793046046414,
        "RAAN(deg)": 89.99118090868296,
        "Satellite Name": "Starlink Shell 1 402",
        "Satellite Number": 402,
        "Semi-Major Axis(m)": 6931778.249405717,
        "Time(s)": 170
    },
    {
        "Altitude(m)": 558952.7530307992,
        "Argument of Periapsis(deg)": 0.006274412631202263,
        "Eccentricity": 0.0,
        "Inclination(deg)": 53.0,
        "Latitude(deg)": 48.99431019684682,
        "Longitude(deg)": 109.73370359656948,
        "Mean Anomaly(deg)": 109.46476166402087,
        "RAAN(deg)": 89.99066213860549,
        "Satellite Name": "Starlink Shell 1 402",
        "Satellite Number": 402,
        "Semi-Major Axis(m)": 6931778.249405717,
        "Time(s)": 180
    }
]